NORAD_CAT_ID,OBJECT_NAME,OBJECT_TYPE,EPOCH,MEAN_MOTION,ECCENTRICITY,INCLINATION,RA_OF_ASC_NODE,ARG_OF_PERICENTER,MEAN_ANOMALY,BSTAR,MEAN_MOTION_DOT,MEAN_MOTION_DDOT,TLE_LINE0,TLE_LINE1,TLE_LINE2,SEMIMAJOR_AXIS,PERIOD,APOGEE,PERIGEE,DECAYED
55429.0,STARLINK-5645,PAYLOAD,2024-04-06 22:29:15,14.98331042,0.0002748,70.0008,53.9393,272.2822,87.8023,-2.0787e-05,-3.41e-06,0.0,0 STARLINK-5645,1 55429U 23014AQ  24097.93698485 -.00000341  00000-0 -20787-4 0  9997,2 55429  70.0008  53.9393 0002748 272.2822  87.8023 14.98331042 66443,6950.19,96.107,573.965,570.145,0.0
55429.0,STARLINK-5645,PAYLOAD,2024-04-07 06:29:55,14.98331121,0.0002839,70.0009,53.097,272.7685,87.3149,8.6025e-06,1e-07,0.0,0 STARLINK-5645,1 55429U 23014AQ  24098.27078368  .00000010  00000-0  86025-5 0  9996,2 55429  70.0009  53.0970 0002839 272.7685  87.3149 14.98331121 66496,6950.189,96.107,574.028,570.081,0.0
55429.0,STARLINK-5645,PAYLOAD,2024-04-07 22:31:16,14.98323833,0.0002878,70.0008,51.4145,271.1222,88.9607,-2.3432e-05,-3.72e-06,0.0,0 STARLINK-5645,1 55429U 23014AQ  24098.93838909 -.00000372  00000-0 -23432-4 0  9999,2 55429  70.0008  51.4145 0002878 271.1222  88.9607 14.98323833 66592,6950.212,96.107,574.077,570.077,0.0
55429.0,STARLINK-5645,PAYLOAD,2024-04-08 03:19:40,14.98328582,0.0002954,70.0006,50.9089,271.5566,88.5255,4.6734e-05,4.65e-06,0.0,0 STARLINK-5645,1 55429U 23014AQ  24099.13866455  .00000465  00000-0  46734-4 0  9990,2 55429  70.0006  50.9089 0002954 271.5566  88.5255 14.98328582 65681,6950.197,96.107,574.115,570.009,0.0
55429.0,STARLINK-5645,PAYLOAD,2024-04-08 14:32:37,14.9832056,0.0002334,70.0018,49.7311,282.8633,77.2265,0.00015262,1.728e-05,0.0,0 STARLINK-5645,1 55429U 23014AQ  24099.60598981  .00001728  00000-0  15262-3 0  9992,2 55429  70.0018  49.7311 0002334 282.8633  77.2265 14.98320560 66696,6950.222,96.108,573.709,570.465,0.0
55429.0,STARLINK-5645,PAYLOAD,2024-04-09 00:09:25,14.98330303,0.0002915,70.0007,48.7206,269.4016,90.6809,-7.8477e-06,-1.87e-06,0.0,0 STARLINK-5645,1 55429U 23014AQ  24100.00654525 -.00000187  00000-0 -78477-5 0  9995,2 55429  70.0007  48.7206 0002915 269.4016  90.6809 14.98330303 66753,6950.192,96.107,574.083,570.031,0.0
55429.0,STARLINK-5645,PAYLOAD,2024-04-09 03:21:41,14.98332654,0.0002813,70.001,48.3842,270.4596,89.6241,2.1589e-05,1.65e-06,0.0,0 STARLINK-5645,1 55429U 23014AQ  24100.14006305  .00000165  00000-0  21589-4 0  9992,2 55429  70.0010  48.3842 0002813 270.4596  89.6241 14.98332654 65838,6950.185,96.107,574.005,570.095,0.0
55429.0,STARLINK-5645,PAYLOAD,2024-04-09 06:33:57,14.98333597,0.0002914,70.0008,48.0477,269.7673,90.3152,2.89e-05,2.52e-06,0.0,0 STARLINK-5645,1 55429U 23014AQ  24100.27358182  .00000252  00000-0  28900-4 0  9990,2 55429  70.0008  48.0477 0002914 269.7673  90.3152 14.98333597 66798,6950.182,96.107,574.072,570.021,0.0
55429.0,STARLINK-5645,PAYLOAD,2024-04-10 04:59:50,14.98334204,0.0002651,70.0019,45.6927,265.2261,94.8596,-6.1761e-05,-8.3e-06,0.0,0 STARLINK-5645,1 55429U 23014AQ  24101.20822431 -.00000830  00000-0 -61761-4 0  9993,2 55429  70.0019  45.6927 0002651 265.2261  94.8596 14.98334204 65993,6950.18,96.107,573.887,570.202,0.0
55429.0,STARLINK-5645,PAYLOAD,2024-04-10 13:00:30,14.98355524,0.0002874,70.0017,44.8505,271.8388,88.2442,-0.00048626,-5.894e-05,0.0,0 STARLINK-5645,1 55429U 23014AQ  24101.54201946 -.00005894  00000-0 -48626-3 0  9991,2 55429  70.0017  44.8505 0002874 271.8388  88.2442 14.98355524 66989,6950.114,96.105,573.976,569.981,0.0
55429.0,STARLINK-5645,PAYLOAD,2024-04-10 22:37:19,14.9832652,0.0002768,70.0014,43.8402,269.5453,90.5389,6.803e-05,7.19e-06,0.0,0 STARLINK-5645,1 55429U 23014AQ  24101.94258571  .00000719  00000-0  68030-4 0  9992,2 55429  70.0014  43.8402 0002768 269.5453  90.5389 14.98326520 67048,6950.204,96.107,573.992,570.145,0.0
55429.0,STARLINK-5645,PAYLOAD,2024-04-11 05:01:51,14.98332885,0.0002767,70.0014,43.1669,265.4152,94.6691,1.5122e-07,-9.1e-07,0.0,0 STARLINK-5645,1 55429U 23014AQ  24102.20962280 -.00000091  00000-0  15122-6 0  9991,2 55429  70.0014  43.1669 0002767 265.4152  94.6691 14.98332885 66148,6950.184,96.107,573.972,570.126,0.0
55429.0,STARLINK-5645,PAYLOAD,2024-04-11 13:02:31,14.98332224,0.0002799,70.0013,42.3249,269.2462,90.8376,-2.4144e-05,-3.81e-06,0.0,0 STARLINK-5645,1 55429U 23014AQ  24102.54342341 -.00000381  00000-0 -24144-4 0  9993,2 55429  70.0013  42.3249 0002799 269.2462  90.8376 14.98332224 67138,6950.186,96.107,573.996,570.106,0.0
55429.0,STARLINK-5645,PAYLOAD,2024-04-11 21:03:12,14.98330802,0.000286,70.0012,41.4836,269.8378,90.2454,-1.062e-05,-2.2e-06,0.0,0 STARLINK-5645,1 55429U 23014AQ  24102.87722449 -.00000220  00000-0 -10620-4 0  9996,2 55429  70.0012  41.4836 0002860 269.8378  90.2454 14.98330802 67186,6950.19,96.107,574.043,570.068,0.0
55429.0,STARLINK-5645,PAYLOAD,2024-04-12 05:03:52,14.98334401,0.0002883,70.001,40.642,269.4871,90.5958,-2.0768e-05,-3.41e-06,0.0,0 STARLINK-5645,1 55429U 23014AQ  24103.21102217 -.00000341  00000-0 -20768-4 0  9998,2 55429  70.0010  40.6420 0002883 269.4871  90.5958 14.98334401 66295,6950.179,96.107,574.048,570.041,0.0
55429.0,STARLINK-5645,PAYLOAD,2024-04-12 22:41:21,14.98328679,0.0002696,70.0012,38.7906,267.4257,92.6593,-1.8642e-05,-3.15e-06,0.0,0 STARLINK-5645,1 55429U 23014AQ  24103.94538545 -.00000315  00000-0 -18642-4 0  9994,2 55429  70.0012  38.7906 0002696 267.4257  92.6593 14.98328679 67347,6950.197,96.107,573.936,570.188,0.0
55429.0,STARLINK-5645,PAYLOAD,2024-04-13 05:05:53,14.98329503,0.0002705,70.0013,38.1172,267.5888,92.4962,-1.038e-05,-2.17e-06,0.0,0 STARLINK-5645,1 55429U 23014AQ  24104.21242483 -.00000217  00000-0 -10380-4 0  9990,2 55429  70.0013  38.1172 0002705 267.5888  92.4962 14.98329503 66444,6950.194,96.107,573.939,570.179,0.0
55429.0,STARLINK-5645,PAYLOAD,2024-04-13 21:07:14,14.98321529,0.0002795,70.0009,36.433,266.7795,93.3044,0.00018234,2.083e-05,0.0,0 STARLINK-5645,1 55429U 23014AQ  24104.88002394  .00002083  00000-0  18234-3 0  9994,2 55429  70.0009  36.4330 0002795 266.7795  93.3044 14.98321529 67489,6950.219,96.108,574.027,570.142,0.0
55429.0,STARLINK-5645,PAYLOAD,2024-04-14 05:07:54,14.98333646,0.0002748,70.0011,35.5915,265.7711,94.3134,3.3258e-05,3.04e-06,0.0,0 STARLINK-5645,1 55429U 23014AQ  24105.21381964  .00000304  00000-0  33258-4 0  9993,2 55429  70.0011  35.5915 0002748 265.7711  94.3134 14.98333646 66591,6950.182,96.107,573.957,570.137,0.0
55429.0,STARLINK-5645,PAYLOAD,2024-04-14 22:45:22,14.98333655,0.0002807,70.0016,33.7406,270.5836,89.5001,-3.9519e-05,-5.64e-06,0.0,0 STARLINK-5645,1 55429U 23014AQ  24105.94818136 -.00000564  00000-0 -39519-4 0  9995,2 55429  70.0016  33.7406 0002807 270.5836  89.5001 14.98333655 67645,6950.182,96.107,573.998,570.096,0.0
55429.0,STARLINK-5645,PAYLOAD,2024-04-15 05:09:54,14.98334481,0.0002696,70.0018,33.067,273.8826,86.2025,3.2639e-05,2.97e-06,0.0,0 STARLINK-5645,1 55429U 23014AQ  24106.21521845  .00000297  00000-0  32639-4 0  9991,2 55429  70.0018  33.0670 0002696 273.8826  86.2025 14.98334481 66742,6950.179,96.107,573.918,570.17,0.0
55429.0,STARLINK-5645,PAYLOAD,2024-04-15 21:11:15,14.9832861,0.000248,70.002,31.3843,264.164,95.9236,6.9516e-05,7.37e-06,0.0,0 STARLINK-5645,1 55429U 23014AQ  24106.88281885  .00000737  00000-0  69516-4 0  9994,2 55429  70.0020  31.3843 0002480 264.1640  95.9236 14.98328610 67789,6950.197,96.107,573.786,570.339,0.0
55429.0,STARLINK-5645,PAYLOAD,2024-04-16 11:36:27,14.98338775,0.0002611,70.002,29.869,272.0945,87.9915,3.9201e-05,3.75e-06,0.0,0 STARLINK-5645,1 55429U 23014AQ  24107.48365093  .00000375  00000-0  39201-4 0  9991,2 55429  70.0020  29.8690 0002611 272.0945  87.9915 14.98338775 66937,6950.166,96.106,573.845,570.216,0.0
55429.0,STARLINK-5645,PAYLOAD,2024-04-16 22:49:23,14.9833929,0.0002682,70.0014,28.6912,272.8276,87.2576,5.0855e-05,5.14e-06,0.0,0 STARLINK-5645,1 55429U 23014AQ  24107.95096795  .00000514  00000-0  50855-4 0  9996,2 55429  70.0014  28.6912 0002682 272.8276  87.2576 14.98339290 67948,6950.164,96.106,573.893,570.165,0.0
55429.0,STARLINK-5645,PAYLOAD,2024-04-17 05:13:54,14.98350309,0.0002514,70.0016,28.0181,271.8377,88.2494,0.00016684,1.899e-05,0.0,0 STARLINK-5645,1 55429U 23014AQ  24108.21799520  .00001899  00000-0  16684-3 0  9990,2 55429  70.0016  28.0181 0002514 271.8377  88.2494 14.98350309 67042,6950.13,96.106,573.742,570.248,0.0
55429.0,STARLINK-5645,PAYLOAD,2024-04-17 19:39:10,14.98313449,0.0003009,70.0016,26.5031,265.4608,94.6207,-0.00033302,-4.063e-05,0.0,0 STARLINK-5645,1 55429U 23014AQ  24108.81887295 -.00004063  00000-0 -33302-3 0  9997,2 55429  70.0016  26.5031 0003009 265.4608  94.6207 14.98313449 67132,6950.244,96.108,574.2,570.018,0.0
55429.0,STARLINK-5645,PAYLOAD,2024-04-17 21:15:18,14.98311714,0.000314,70.0012,26.3347,263.4519,96.6282,-0.00035979,-4.381e-05,0.0,0 STARLINK-5645,1 55429U 23014AQ  24108.88563544 -.00004381  00000-0 -35979-3 0  9997,2 55429  70.0012  26.3347 0003140 263.4519  96.6282 14.98311714 68084,6950.249,96.108,574.297,569.932,0.0
55429.0,STARLINK-5645,PAYLOAD,2024-04-18 03:39:51,14.9831305,0.0002939,70.0012,25.6616,256.8036,103.2795,-0.00032299,-3.943e-05,0.0,0 STARLINK-5645,1 55429U 23014AQ  24109.15267620 -.00003943  00000-0 -32299-3 0  9999,2 55429  70.0012  25.6616 0002939 256.8036 103.2795 14.98313050 68124,6950.245,96.108,574.153,570.068,0.0
55429.0,STARLINK-5645,PAYLOAD,2024-04-18 21:17:19,14.98318923,0.0003928,69.9999,23.807,285.8954,74.1772,-4.1499e-05,-5.88e-06,0.0,0 STARLINK-5645,1 55429U 23014AQ  24109.88702873 -.00000588  00000-0 -41499-4 0  9998,2 55429  69.9999  23.8070 0003928 285.8954  74.1772 14.98318923 67291,6950.227,96.108,574.822,569.362,0.0
55429.0,STARLINK-5645,PAYLOAD,2024-04-18 22:53:27,14.98323834,0.0003367,70.0002,23.6388,288.3861,71.6932,-3.6985e-05,-5.34e-06,0.0,0 STARLINK-5645,1 55429U 23014AQ  24109.95378669 -.00000534  00000-0 -36985-4 0  9993,2 55429  70.0002  23.6388 0003367 288.3861  71.6932 14.98323834 68244,6950.212,96.107,574.417,569.737,0.0
